{
  "type": "FeatureCollection",
  "features": [
    {
      "type": "Feature",
      "properties": {
        "norad_id": 67110,
        "name": "STARLINK-35781",
        "group": "last-30-days",
        "lat": -22.869516651538206,
        "lon": 105.97575586434833,
        "alt_km": 292.75794005572516,
        "timestamp": "2025-12-22T04:03:37.891120+00:00",
        "meta_object_name": "STARLINK-35781",
        "meta_object_id": "2025-299J",
        "meta_epoch": "2025-12-21T20:00:01.999008",
        "meta_mean_motion": 15.93886585,
        "meta_eccentricity": 0.0002414,
        "meta_inclination": 42.9988,
        "meta_ra_of_asc_node": 261.156,
        "meta_arg_of_pericenter": 263.5862,
        "meta_mean_anomaly": 181.7578,
        "meta_ephemeris_type": 0,
        "meta_classification_type": "U",
        "meta_norad_cat_id": 67110,
        "meta_element_set_no": 999,
        "meta_rev_at_epoch": 222,
        "meta_bstar": -0.00025303,
        "meta_mean_motion_dot": -0.00099006,
        "meta_mean_motion_ddot": 1.1608e-05,
        "tle_line1": "1 67110U 25299J   25355.83335647 -.00099006  11608-4 -25303-3 0  9993",
        "tle_line2": "2 67110  42.9988 261.1560 0002414 263.5862 181.7578 15.93886585  2222"
      },
      "geometry": {
        "type": "Point",
        "coordinates": [
          105.97575586434833,
          -22.869516651538206
        ]
      }
    },
    {
      "type": "Feature",
      "properties": {
        "norad_id": 67111,
        "name": "STARLINK-35875",
        "group": "last-30-days",
        "lat": -21.844804715278567,
        "lon": 104.54693821032696,
        "alt_km": 293.1217566622363,
        "timestamp": "2025-12-22T04:03:37.891132+00:00",
        "meta_object_name": "STARLINK-35875",
        "meta_object_id": "2025-299K",
        "meta_epoch": "2025-12-21T20:00:01.999008",
        "meta_mean_motion": 15.93867167,
        "meta_eccentricity": 0.0001702,
        "meta_inclination": 42.999,
        "meta_ra_of_asc_node": 261.1604,
        "meta_arg_of_pericenter": 269.9533,
        "meta_mean_anomaly": 173.7239,
        "meta_ephemeris_type": 0,
        "meta_classification_type": "U",
        "meta_norad_cat_id": 67111,
        "meta_element_set_no": 999,
        "meta_rev_at_epoch": 216,
        "meta_bstar": -0.0001963,
        "meta_mean_motion_dot": -0.00077315,
        "meta_mean_motion_ddot": 1.0329e-05,
        "tle_line1": "1 67111U 25299K   25355.83335647 -.00077315  10329-4 -19630-3 0  9998",
        "tle_line2": "2 67111  42.9990 261.1604 0001702 269.9533 173.7239 15.93867167  2162"
      },
      "geometry": {
        "type": "Point",
        "coordinates": [
          104.54693821032696,
          -21.844804715278567
        ]
      }
    },
    {
      "type": "Feature",
      "properties": {
        "norad_id": 67112,
        "name": "STARLINK-35906",
        "group": "last-30-days",
        "lat": -23.68805146233273,
        "lon": 107.14605555319103,
        "alt_km": 293.1020321210217,
        "timestamp": "2025-12-22T04:03:37.891142+00:00",
        "meta_object_name": "STARLINK-35906",
        "meta_object_id": "2025-299L",
        "meta_epoch": "2025-12-21T20:00:01.999008",
        "meta_mean_motion": 15.93917641,
        "meta_eccentricity": 0.0002136,
        "meta_inclination": 42.9989,
        "meta_ra_of_asc_node": 261.1527,
        "meta_arg_of_pericenter": 272.5295,
        "meta_mean_anomaly": 174.1525,
        "meta_ephemeris_type": 0,
        "meta_classification_type": "U",
        "meta_norad_cat_id": 67112,
        "meta_element_set_no": 999,
        "meta_rev_at_epoch": 216,
        "meta_bstar": -0.00039136,
        "meta_mean_motion_dot": -0.00151908,
        "meta_mean_motion_ddot": 1.6043e-05,
        "tle_line1": "1 67112U 25299L   25355.83335647 -.00151908  16043-4 -39136-3 0  9992",
        "tle_line2": "2 67112  42.9989 261.1527 0002136 272.5295 174.1525 15.93917641  2168"
      },
      "geometry": {
        "type": "Point",
        "coordinates": [
          107.14605555319103,
          -23.68805146233273
        ]
      }
    },
    {
      "type": "Feature",
      "properties": {
        "norad_id": 67113,
        "name": "STARLINK-35789",
        "group": "last-30-days",
        "lat": -24.568973046521236,
        "lon": 108.43682056354353,
        "alt_km": 293.08159028144655,
        "timestamp": "2025-12-22T04:03:37.891154+00:00",
        "meta_object_name": "STARLINK-35789",
        "meta_object_id": "2025-299M",
        "meta_epoch": "2025-12-21T20:00:01.999008",
        "meta_mean_motion": 15.93898035,
        "meta_eccentricity": 0.0001685,
        "meta_inclination": 42.9989,
        "meta_ra_of_asc_node": 261.1489,
        "meta_arg_of_pericenter": 264.0237,
        "meta_mean_anomaly": 184.119,
        "meta_ephemeris_type": 0,
        "meta_classification_type": "U",
        "meta_norad_cat_id": 67113,
        "meta_element_set_no": 999,
        "meta_rev_at_epoch": 216,
        "meta_bstar": -0.00018729,
        "meta_mean_motion_dot": -0.00074007,
        "meta_mean_motion_ddot": 1.0163e-05,
        "tle_line1": "1 67113U 25299M   25355.83335647 -.00074007  10163-4 -18729-3 0  9999",
        "tle_line2": "2 67113  42.9989 261.1489 0001685 264.0237 184.1190 15.93898035  2160"
      },
      "geometry": {
        "type": "Point",
        "coordinates": [
          108.43682056354353,
          -24.568973046521236
        ]
      }
    },
    {
      "type": "Feature",
      "properties": {
        "norad_id": 67114,
        "name": "STARLINK-36180",
        "group": "last-30-days",
        "lat": -25.624348854997155,
        "lon": 110.03010536402053,
        "alt_km": 292.92691591219227,
        "timestamp": "2025-12-22T04:03:37.891166+00:00",
        "meta_object_name": "STARLINK-36180",
        "meta_object_id": "2025-299N",
        "meta_epoch": "2025-12-21T20:00:01.999008",
        "meta_mean_motion": 15.93978089,
        "meta_eccentricity": 0.00024,
        "meta_inclination": 42.9991,
        "meta_ra_of_asc_node": 261.1447,
        "meta_arg_of_pericenter": 268.4241,
        "meta_mean_anomaly": 181.4784,
        "meta_ephemeris_type": 0,
        "meta_classification_type": "U",
        "meta_norad_cat_id": 67114,
        "meta_element_set_no": 999,
        "meta_rev_at_epoch": 227,
        "meta_bstar": -0.00055625,
        "meta_mean_motion_dot": -0.00215469,
        "meta_mean_motion_ddot": 2.3786e-05,
        "tle_line1": "1 67114U 25299N   25355.83335647 -.00215469  23786-4 -55625-3 0  9990",
        "tle_line2": "2 67114  42.9991 261.1447 0002400 268.4241 181.4784 15.93978089  2276"
      },
      "geometry": {
        "type": "Point",
        "coordinates": [
          110.03010536402053,
          -25.624348854997155
        ]
      }
    },
    {
      "type": "Feature",
      "properties": {
        "norad_id": 67115,
        "name": "STARLINK-35892",
        "group": "last-30-days",
        "lat": -26.49946243961003,
        "lon": 111.39364696263864,
        "alt_km": 292.89194931936254,
        "timestamp": "2025-12-22T04:03:37.891176+00:00",
        "meta_object_name": "STARLINK-35892",
        "meta_object_id": "2025-299P",
        "meta_epoch": "2025-12-21T20:00:01.999008",
        "meta_mean_motion": 15.94061962,
        "meta_eccentricity": 0.0002241,
        "meta_inclination": 42.9991,
        "meta_ra_of_asc_node": 261.1409,
        "meta_arg_of_pericenter": 259.8525,
        "meta_mean_anomaly": 191.5158,
        "meta_ephemeris_type": 0,
        "meta_classification_type": "U",
        "meta_norad_cat_id": 67115,
        "meta_element_set_no": 999,
        "meta_rev_at_epoch": 216,
        "meta_bstar": -0.00095589,
        "meta_mean_motion_dot": -0.00369849,
        "meta_mean_motion_ddot": 5.3069e-05,
        "tle_line1": "1 67115U 25299P   25355.83335647 -.00369849  53069-4 -95589-3 0  9993",
        "tle_line2": "2 67115  42.9991 261.1409 0002241 259.8525 191.5158 15.94061962  2166"
      },
      "geometry": {
        "type": "Point",
        "coordinates": [
          111.39364696263864,
          -26.49946243961003
        ]
      }
    },
    {
      "type": "Feature",
      "properties": {
        "norad_id": 67116,
        "name": "STARLINK-35738",
        "group": "last-30-days",
        "lat": -27.559634673895115,
        "lon": 113.10295040963165,
        "alt_km": 292.938113490809,
        "timestamp": "2025-12-22T04:03:37.891186+00:00",
        "meta_object_name": "STARLINK-35738",
        "meta_object_id": "2025-299Q",
        "meta_epoch": "2025-12-21T20:00:01.999008",
        "meta_mean_motion": 15.94153042,
        "meta_eccentricity": 0.0002197,
        "meta_inclination": 42.999,
        "meta_ra_of_asc_node": 261.1363,
        "meta_arg_of_pericenter": 258.5378,
        "meta_mean_anomaly": 194.6403,
        "meta_ephemeris_type": 0,
        "meta_classification_type": "U",
        "meta_norad_cat_id": 67116,
        "meta_element_set_no": 999,
        "meta_rev_at_epoch": 216,
        "meta_bstar": -0.0013442,
        "meta_mean_motion_dot": -0.0052124,
        "meta_mean_motion_ddot": 9.5412e-05,
        "tle_line1": "1 67116U 25299Q   25355.83335647 -.00521240  95412-4 -13442-2 0  9994",
        "tle_line2": "2 67116  42.9990 261.1363 0002197 258.5378 194.6403 15.94153042  2165"
      },
      "geometry": {
        "type": "Point",
        "coordinates": [
          113.10295040963165,
          -27.559634673895115
        ]
      }
    }
  ]
}